[{"OBJECT_NAME":"EDISON-1","OBJECT_ID":"2025-009B","EPOCH":"2026-03-09T19:16:13.822464","MEAN_MOTION":15.29042904,"ECCENTRICITY":0.00043285,"INCLINATION":97.4042,"RA_OF_ASC_NODE":151.6286,"ARG_OF_PERICENTER":306.4185,"MEAN_ANOMALY":53.6655,"EPHEMERIS_TYPE":0,"CLASSIFICATION_TYPE":"U","NORAD_CAT_ID":62610,"ELEMENT_SET_NO":999,"REV_AT_EPOCH":6375,"BSTAR":0.00052814963,"MEAN_MOTION_DOT":0.00014835,"MEAN_MOTION_DDOT":0},{"OBJECT_NAME":"STARLINK-36414","OBJECT_ID":"2026-008Z","EPOCH":"2026-03-09T09:59:01.911840","MEAN_MOTION":15.27598994,"ECCENTRICITY":0.00033183,"INCLINATION":42.9999,"RA_OF_ASC_NODE":206.469,"ARG_OF_PERICENTER":287.4655,"MEAN_ANOMALY":72.5833,"EPHEMERIS_TYPE":0,"CLASSIFICATION_TYPE":"U","NORAD_CAT_ID":67468,"ELEMENT_SET_NO":999,"REV_AT_EPOCH":953,"BSTAR":0.0013841496,"MEAN_MOTION_DOT":0.00038049,"MEAN_MOTION_DDOT":0}]
